CCSDS_OMM_VERS = 2.0
CREATION_DATE  = 
ORIGINATOR     = 

OBJECT_NAME    = COSMOS 2058
OBJECT_ID      = 1990-010A
CENTER_NAME    = EARTH
REF_FRAME      = TEME
TIME_SYSTEM    = UTC
MEAN_ELEMENT_THEORY = SGP/SGP4

EPOCH          = 2026-03-27T20:30:44.455680
MEAN_MOTION    = 15.11481776
ECCENTRICITY   = .0007425
INCLINATION    = 82.4685
RA_OF_ASC_NODE = 29.5278
ARG_OF_PERICENTER = 272.0691
MEAN_ANOMALY   = 87.9689

EPHEMERIS_TYPE = 0
CLASSIFICATION_TYPE = U
NORAD_CAT_ID   = 20465
ELEMENT_SET_NO = 999
REV_AT_EPOCH   = 94498
BSTAR          = .29482E-3
MEAN_MOTION_DOT = .5019E-4
MEAN_MOTION_DDOT = 0

CCSDS_OMM_VERS = 2.0
CREATION_DATE  = 
ORIGINATOR     = 

OBJECT_NAME    = SL-14 R/B
OBJECT_ID      = 1990-010B
CENTER_NAME    = EARTH
REF_FRAME      = TEME
TIME_SYSTEM    = UTC
MEAN_ELEMENT_THEORY = SGP/SGP4

EPOCH          = 2026-03-27T19:55:07.553856
MEAN_MOTION    = 14.83585090
ECCENTRICITY   = .0018558
INCLINATION    = 82.4996
RA_OF_ASC_NODE = 250.3438
ARG_OF_PERICENTER = 237.8556
MEAN_ANOMALY   = 122.0859

EPHEMERIS_TYPE = 0
CLASSIFICATION_TYPE = U
NORAD_CAT_ID   = 20466
ELEMENT_SET_NO = 999
REV_AT_EPOCH   = 93117
BSTAR          = .58116E-4
MEAN_MOTION_DOT = .504E-5
MEAN_MOTION_DDOT = 0

CCSDS_OMM_VERS = 2.0
CREATION_DATE  = 
ORIGINATOR     = 

OBJECT_NAME    = SL-14 R/B
OBJECT_ID      = 1990-018B
CENTER_NAME    = EARTH
REF_FRAME      = TEME
TIME_SYSTEM    = UTC
MEAN_ELEMENT_THEORY = SGP/SGP4

EPOCH          = 2026-03-27T19:08:38.842656
MEAN_MOTION    = 14.82162307
ECCENTRICITY   = .0017015
INCLINATION    = 82.5236
RA_OF_ASC_NODE = 206.1674
ARG_OF_PERICENTER = 36.7813
MEAN_ANOMALY   = 323.4565

EPHEMERIS_TYPE = 0
CLASSIFICATION_TYPE = U
NORAD_CAT_ID   = 20511
ELEMENT_SET_NO = 999
REV_AT_EPOCH   = 92526
BSTAR          = .50389E-4
MEAN_MOTION_DOT = .426E-5
MEAN_MOTION_DDOT = 0

CCSDS_OMM_VERS = 2.0
CREATION_DATE  = 
ORIGINATOR     = 

OBJECT_NAME    = HST
OBJECT_ID      = 1990-037B
CENTER_NAME    = EARTH
REF_FRAME      = TEME
TIME_SYSTEM    = UTC
MEAN_ELEMENT_THEORY = SGP/SGP4

EPOCH          = 2026-03-27T19:40:12.010944
MEAN_MOTION    = 15.29755431
ECCENTRICITY   = .0001637
INCLINATION    = 28.4722
RA_OF_ASC_NODE = 276.2991
ARG_OF_PERICENTER = 339.0447
MEAN_ANOMALY   = 21.0081

EPHEMERIS_TYPE = 0
CLASSIFICATION_TYPE = U
NORAD_CAT_ID   = 20580
ELEMENT_SET_NO = 999
REV_AT_EPOCH   = 77609
BSTAR          = .24793E-3
MEAN_MOTION_DOT = .7586E-4
MEAN_MOTION_DDOT = 0

CCSDS_OMM_VERS = 2.0
CREATION_DATE  = 
ORIGINATOR     = 

OBJECT_NAME    = SL-16 R/B
OBJECT_ID      = 1990-046B
CENTER_NAME    = EARTH
REF_FRAME      = TEME
TIME_SYSTEM    = UTC
MEAN_ELEMENT_THEORY = SGP/SGP4

EPOCH          = 2026-03-27T19:03:47.858688
MEAN_MOTION    = 14.15015563
ECCENTRICITY   = .0016311
INCLINATION    = 70.9973
RA_OF_ASC_NODE = 259.8872
ARG_OF_PERICENTER = 275.8665
MEAN_ANOMALY   = 84.0598

EPHEMERIS_TYPE = 0
CLASSIFICATION_TYPE = U
NORAD_CAT_ID   = 20625
ELEMENT_SET_NO = 999
REV_AT_EPOCH   = 85095
BSTAR          = .16203E-3
MEAN_MOTION_DOT = .266E-5
MEAN_MOTION_DDOT = 0

CCSDS_OMM_VERS = 2.0
CREATION_DATE  = 
ORIGINATOR     = 

OBJECT_NAME    = COSMOS 2084
OBJECT_ID      = 1990-055A
CENTER_NAME    = EARTH
REF_FRAME      = TEME
TIME_SYSTEM    = UTC
MEAN_ELEMENT_THEORY = SGP/SGP4

EPOCH          = 2026-03-27T20:27:37.223424
MEAN_MOTION    = 15.05746979
ECCENTRICITY   = .001421
INCLINATION    = 62.7892
RA_OF_ASC_NODE = 273.6250
ARG_OF_PERICENTER = 195.6224
MEAN_ANOMALY   = 164.4440

EPHEMERIS_TYPE = 0
CLASSIFICATION_TYPE = U
NORAD_CAT_ID   = 20663
ELEMENT_SET_NO = 999
REV_AT_EPOCH   = 93905
BSTAR          = .19574E-3
MEAN_MOTION_DOT = .2651E-4
MEAN_MOTION_DDOT = 0

CCSDS_OMM_VERS = 2.0
CREATION_DATE  = 
ORIGINATOR     = 

OBJECT_NAME    = SL-6 R/B(2)
OBJECT_ID      = 1990-055D
CENTER_NAME    = EARTH
REF_FRAME      = TEME
TIME_SYSTEM    = UTC
MEAN_ELEMENT_THEORY = SGP/SGP4

EPOCH          = 2026-03-27T15:51:11.742912
MEAN_MOTION    = 15.03678607
ECCENTRICITY   = .002774
INCLINATION    = 62.7831
RA_OF_ASC_NODE = 192.7333
ARG_OF_PERICENTER = 351.1624
MEAN_ANOMALY   = 8.8983

EPHEMERIS_TYPE = 0
CLASSIFICATION_TYPE = U
NORAD_CAT_ID   = 20666
ELEMENT_SET_NO = 999
REV_AT_EPOCH   = 94089
BSTAR          = .13899E-3
MEAN_MOTION_DOT = .1725E-4
MEAN_MOTION_DDOT = 0

CCSDS_OMM_VERS = 2.0
CREATION_DATE  = 
ORIGINATOR     = 

OBJECT_NAME    = SL-8 R/B
OBJECT_ID      = 1990-078B
CENTER_NAME    = EARTH
REF_FRAME      = TEME
TIME_SYSTEM    = UTC
MEAN_ELEMENT_THEORY = SGP/SGP4

EPOCH          = 2026-03-27T20:23:08.282688
MEAN_MOTION    = 14.89605627
ECCENTRICITY   = .0358589
INCLINATION    = 82.9021
RA_OF_ASC_NODE = 234.9691
ARG_OF_PERICENTER = 312.7687
MEAN_ANOMALY   = 44.3868

EPHEMERIS_TYPE = 0
CLASSIFICATION_TYPE = U
NORAD_CAT_ID   = 20775
ELEMENT_SET_NO = 999
REV_AT_EPOCH   = 81200
BSTAR          = .34331E-3
MEAN_MOTION_DOT = .11591E-3
MEAN_MOTION_DDOT = 0

CCSDS_OMM_VERS = 2.0
CREATION_DATE  = 
ORIGINATOR     = 

OBJECT_NAME    = SL-8 R/B
OBJECT_ID      = 1991-006B
CENTER_NAME    = EARTH
REF_FRAME      = TEME
TIME_SYSTEM    = UTC
MEAN_ELEMENT_THEORY = SGP/SGP4

EPOCH          = 2026-03-27T17:20:01.419360
MEAN_MOTION    = 13.77496921
ECCENTRICITY   = .0021919
INCLINATION    = 82.9447
RA_OF_ASC_NODE = 156.6397
ARG_OF_PERICENTER = 348.3180
MEAN_ANOMALY   = 129.3166

EPHEMERIS_TYPE = 0
CLASSIFICATION_TYPE = U
NORAD_CAT_ID   = 21088
ELEMENT_SET_NO = 999
REV_AT_EPOCH   = 76655
BSTAR          = .64259E-4
MEAN_MOTION_DOT = .79E-6
MEAN_MOTION_DDOT = 0

CCSDS_OMM_VERS = 2.0
CREATION_DATE  = 
ORIGINATOR     = 

OBJECT_NAME    = OKEAN-3
OBJECT_ID      = 1991-039A
CENTER_NAME    = EARTH
REF_FRAME      = TEME
TIME_SYSTEM    = UTC
MEAN_ELEMENT_THEORY = SGP/SGP4

EPOCH          = 2026-03-27T21:33:14.771232
MEAN_MOTION    = 15.04908206
ECCENTRICITY   = .0012319
INCLINATION    = 82.5165
RA_OF_ASC_NODE = 319.2017
ARG_OF_PERICENTER = 269.3728
MEAN_ANOMALY   = 90.6087

EPHEMERIS_TYPE = 0
CLASSIFICATION_TYPE = U
NORAD_CAT_ID   = 21397
ELEMENT_SET_NO = 999
REV_AT_EPOCH   = 86777
BSTAR          = .14865E-3
MEAN_MOTION_DOT = .2134E-4
MEAN_MOTION_DDOT = 0

CCSDS_OMM_VERS = 2.0
CREATION_DATE  = 
ORIGINATOR     = 

OBJECT_NAME    = COSMOS 2151
OBJECT_ID      = 1991-042A
CENTER_NAME    = EARTH
REF_FRAME      = TEME
TIME_SYSTEM    = UTC
MEAN_ELEMENT_THEORY = SGP/SGP4

EPOCH          = 2026-03-27T19:49:53.043168
MEAN_MOTION    = 15.00180388
ECCENTRICITY   = .0012514
INCLINATION    = 82.4944
RA_OF_ASC_NODE = 66.1754
ARG_OF_PERICENTER = 6.6145
MEAN_ANOMALY   = 353.5241

EPHEMERIS_TYPE = 0
CLASSIFICATION_TYPE = U
NORAD_CAT_ID   = 21422
ELEMENT_SET_NO = 999
REV_AT_EPOCH   = 86591
BSTAR          = .2001E-3
MEAN_MOTION_DOT = .2529E-4
MEAN_MOTION_DDOT = 0

CCSDS_OMM_VERS = 2.0
CREATION_DATE  = 
ORIGINATOR     = 

OBJECT_NAME    = SL-14 R/B
OBJECT_ID      = 1991-042B
CENTER_NAME    = EARTH
REF_FRAME      = TEME
TIME_SYSTEM    = UTC
MEAN_ELEMENT_THEORY = SGP/SGP4

EPOCH          = 2026-03-27T18:53:19.692672
MEAN_MOTION    = 14.81847431
ECCENTRICITY   = .0017128
INCLINATION    = 82.4955
RA_OF_ASC_NODE = 203.2153
ARG_OF_PERICENTER = 176.7908
MEAN_ANOMALY   = 183.3419

EPHEMERIS_TYPE = 0
CLASSIFICATION_TYPE = U
NORAD_CAT_ID   = 21423
ELEMENT_SET_NO = 999
REV_AT_EPOCH   = 85575
BSTAR          = .58169E-4
MEAN_MOTION_DOT = .484E-5
MEAN_MOTION_DDOT = 0

